{
  "type": "FeatureCollection",
  "features": [
    {
      "type": "Feature",
      "properties": {
        "norad_id": 38091,
        "name": "BEIDOU-2 G5 (C05)",
        "group": "gnss",
        "lat": -1.8221008903231066,
        "lon": 34.53291811936998,
        "alt_km": 35790.33522442429,
        "timestamp": "2025-12-14T16:47:40.926132+00:00",
        "meta_object_name": "BEIDOU-2 G5 (C05)",
        "meta_object_id": "2012-008A",
        "meta_epoch": "2025-12-14T00:00:07.426080",
        "meta_mean_motion": 1.00276224,
        "meta_eccentricity": 0.001255,
        "meta_inclination": 3.1127,
        "meta_ra_of_asc_node": 70.708,
        "meta_arg_of_pericenter": 228.1949,
        "meta_mean_anomaly": 202.8627,
        "meta_ephemeris_type": 0,
        "meta_classification_type": "U",
        "meta_norad_cat_id": 38091,
        "meta_element_set_no": 999,
        "meta_rev_at_epoch": 5051,
        "meta_bstar": 0,
        "meta_mean_motion_dot": 7.1e-07,
        "meta_mean_motion_ddot": 0,
        "tle_line1": "1 38091U 12008A   25348.00008595  .00000071  00000+0  00000+0 0  9997",
        "tle_line2": "2 38091   3.1127  70.7080 0012550 228.1949 202.8627  1.00276224 50519"
      },
      "geometry": {
        "type": "Point",
        "coordinates": [
          34.53291811936998,
          -1.8221008903231066
        ]
      }
    },
    {
      "type": "Feature",
      "properties": {
        "norad_id": 38250,
        "name": "BEIDOU-2 M3 (C11)",
        "group": "gnss",
        "lat": 24.304545793530107,
        "lon": 113.27890447583319,
        "alt_km": 21563.311086825164,
        "timestamp": "2025-12-14T16:47:40.926146+00:00",
        "meta_object_name": "BEIDOU-2 M3 (C11)",
        "meta_object_id": "2012-018A",
        "meta_epoch": "2025-12-13T09:37:38.892576",
        "meta_mean_motion": 1.86229834,
        "meta_eccentricity": 0.0024285,
        "meta_inclination": 55.9192,
        "meta_ra_of_asc_node": 311.1346,
        "meta_arg_of_pericenter": 274.3126,
        "meta_mean_anomaly": 85.3992,
        "meta_ephemeris_type": 0,
        "meta_classification_type": "U",
        "meta_norad_cat_id": 38250,
        "meta_element_set_no": 999,
        "meta_rev_at_epoch": 9248,
        "meta_bstar": 0,
        "meta_mean_motion_dot": -9.5e-07,
        "meta_mean_motion_ddot": 0,
        "tle_line1": "1 38250U 12018A   25347.40114459 -.00000095  00000+0  00000+0 0  9992",
        "tle_line2": "2 38250  55.9192 311.1346 0024285 274.3126  85.3992  1.86229834 92488"
      },
      "geometry": {
        "type": "Point",
        "coordinates": [
          113.27890447583319,
          24.304545793530107
        ]
      }
    },
    {
      "type": "Feature",
      "properties": {
        "norad_id": 38251,
        "name": "BEIDOU-2 M4 (C12)",
        "group": "gnss",
        "lat": -13.10966389178775,
        "lon": 139.40127305691274,
        "alt_km": 21523.818462195737,
        "timestamp": "2025-12-14T16:47:40.926158+00:00",
        "meta_object_name": "BEIDOU-2 M4 (C12)",
        "meta_object_id": "2012-018B",
        "meta_epoch": "2025-12-13T07:59:48.422112",
        "meta_mean_motion": 1.86229462,
        "meta_eccentricity": 0.00154528,
        "meta_inclination": 55.8208,
        "meta_ra_of_asc_node": 310.3658,
        "meta_arg_of_pericenter": 277.4494,
        "meta_mean_anomaly": 82.3644,
        "meta_ephemeris_type": 0,
        "meta_classification_type": "U",
        "meta_norad_cat_id": 38251,
        "meta_element_set_no": 999,
        "meta_rev_at_epoch": 9248,
        "meta_bstar": 0,
        "meta_mean_motion_dot": -9.5e-07,
        "meta_mean_motion_ddot": 0,
        "tle_line1": "1 38251U 12018B   25347.33319933 -.00000095  00000+0  00000+0 0  9999",
        "tle_line2": "2 38251  55.8208 310.3658 0015452 277.4494  82.3644  1.86229462 92489"
      },
      "geometry": {
        "type": "Point",
        "coordinates": [
          139.40127305691274,
          -13.10966389178775
        ]
      }
    },
    {
      "type": "Feature",
      "properties": {
        "norad_id": 38652,
        "name": "SES-5 (EGNOS/PRN 136)",
        "group": "gnss",
        "lat": 0.03619608491221251,
        "lon": -19.476112162110308,
        "alt_km": 35783.58557919796,
        "timestamp": "2025-12-14T16:47:40.926171+00:00",
        "meta_object_name": "SES-5 (EGNOS/PRN 136)",
        "meta_object_id": "2012-036A",
        "meta_epoch": "2025-12-13T22:23:38.652000",
        "meta_mean_motion": 1.00271859,
        "meta_eccentricity": 0.00020267,
        "meta_inclination": 0.0568,
        "meta_ra_of_asc_node": 305.258,
        "meta_arg_of_pericenter": 321.7228,
        "meta_mean_anomaly": 156.765,
        "meta_ephemeris_type": 0,
        "meta_classification_type": "U",
        "meta_norad_cat_id": 38652,
        "meta_element_set_no": 999,
        "meta_rev_at_epoch": 4260,
        "meta_bstar": 0,
        "meta_mean_motion_dot": 5e-07,
        "meta_mean_motion_ddot": 0,
        "tle_line1": "1 38652U 12036A   25347.93308625  .00000050  00000+0  00000+0 0  9996",
        "tle_line2": "2 38652   0.0568 305.2580 0002026 321.7228 156.7650  1.00271859 42608"
      },
      "geometry": {
        "type": "Point",
        "coordinates": [
          -19.476112162110308,
          0.03619608491221251
        ]
      }
    },
    {
      "type": "Feature",
      "properties": {
        "norad_id": 38775,
        "name": "BEIDOU-2 M6 (C14)",
        "group": "gnss",
        "lat": 24.699721359552463,
        "lon": 86.80261326518291,
        "alt_km": 21503.230714965994,
        "timestamp": "2025-12-14T16:47:40.926183+00:00",
        "meta_object_name": "BEIDOU-2 M6 (C14)",
        "meta_object_id": "2012-050B",
        "meta_epoch": "2025-12-11T10:23:51.015840",
        "meta_mean_motion": 1.86230797,
        "meta_eccentricity": 0.00111593,
        "meta_inclination": 56.3773,
        "meta_ra_of_asc_node": 69.1107,
        "meta_arg_of_pericenter": 344.6089,
        "meta_mean_anomaly": 15.3783,
        "meta_ephemeris_type": 0,
        "meta_classification_type": "U",
        "meta_norad_cat_id": 38775,
        "meta_element_set_no": 999,
        "meta_rev_at_epoch": 8981,
        "meta_bstar": 0,
        "meta_mean_motion_dot": -6.3e-07,
        "meta_mean_motion_ddot": 0,
        "tle_line1": "1 38775U 12050B   25345.43322935 -.00000063  00000+0  00000+0 0  9996",
        "tle_line2": "2 38775  56.3773  69.1107 0011159 344.6089  15.3783  1.86230797 89814"
      },
      "geometry": {
        "type": "Point",
        "coordinates": [
          86.80261326518291,
          24.699721359552463
        ]
      }
    },
    {
      "type": "Feature",
      "properties": {
        "norad_id": 38779,
        "name": "GSAT-10 (GAGAN/PRN 128)",
        "group": "gnss",
        "lat": 0.058260138947527976,
        "lon": 58.50849129719563,
        "alt_km": 35782.31279160414,
        "timestamp": "2025-12-14T16:47:40.926194+00:00",
        "meta_object_name": "GSAT-10 (GAGAN/PRN 128)",
        "meta_object_id": "2012-051B",
        "meta_epoch": "2025-12-13T22:24:16.606656",
        "meta_mean_motion": 1.00273052,
        "meta_eccentricity": 0.00024834,
        "meta_inclination": 0.0866,
        "meta_ra_of_asc_node": 266.1544,
        "meta_arg_of_pericenter": 223.3714,
        "meta_mean_anomaly": 12.4094,
        "meta_ephemeris_type": 0,
        "meta_classification_type": "U",
        "meta_norad_cat_id": 38779,
        "meta_element_set_no": 999,
        "meta_rev_at_epoch": 4824,
        "meta_bstar": 0,
        "meta_mean_motion_dot": -1.49e-06,
        "meta_mean_motion_ddot": 0,
        "tle_line1": "1 38779U 12051B   25347.93352554 -.00000149  00000+0  00000+0 0  9993",
        "tle_line2": "2 38779   0.0866 266.1544 0002483 223.3714  12.4094  1.00273052 48241"
      },
      "geometry": {
        "type": "Point",
        "coordinates": [
          58.50849129719563,
          0.058260138947527976
        ]
      }
    },
    {
      "type": "Feature",
      "properties": {
        "norad_id": 38833,
        "name": "GPS BIIF-3  (PRN 24)",
        "group": "gnss",
        "lat": -51.3542665862852,
        "lon": 38.713847390052585,
        "alt_km": 20643.905061108013,
        "timestamp": "2025-12-14T16:47:40.926209+00:00",
        "meta_object_name": "GPS BIIF-3  (PRN 24)",
        "meta_object_id": "2012-053A",
        "meta_epoch": "2025-12-13T20:21:34.724448",
        "meta_mean_motion": 2.00565042,
        "meta_eccentricity": 0.01758819,
        "meta_inclination": 53.5579,
        "meta_ra_of_asc_node": 151.1931,
        "meta_arg_of_pericenter": 64.0051,
        "meta_mean_anomaly": 297.7998,
        "meta_ephemeris_type": 0,
        "meta_classification_type": "U",
        "meta_norad_cat_id": 38833,
        "meta_element_set_no": 999,
        "meta_rev_at_epoch": 9572,
        "meta_bstar": 0,
        "meta_mean_motion_dot": 9.2e-07,
        "meta_mean_motion_ddot": 0,
        "tle_line1": "1 38833U 12053A   25347.84831857  .00000092  00000+0  00000+0 0  9990",
        "tle_line2": "2 38833  53.5579 151.1931 0175881  64.0051 297.7998  2.00565042 95726"
      },
      "geometry": {
        "type": "Point",
        "coordinates": [
          38.713847390052585,
          -51.3542665862852
        ]
      }
    }
  ]
}